start=new Date('2023-01-17T00:00:00.000Z').valueOf();
sats=[{"TIME_SYSTEM":"UTC","OBJECT_TYPE":"PAYLOAD","DECAY_DATE":null,"BSTAR":"-0.00025493000000","TLE_LINE1":"1 44723U 19074L   23016.78183336 -.00004074  00000-0 -25493-3 0  9995","MEAN_MOTION_DOT":"-0.00004074","ELEMENT_SET_NO":"999","OBJECT_ID":"2019-074L","PERIAPSIS":"546.402","OBJECT_NAME":"STARLINK-1017","MEAN_ANOMALY":"293.4280","EPOCH":"2023-01-16T18:45:50.402304","CLASSIFICATION_TYPE":"U","REV_AT_EPOCH":"17573","ECCENTRICITY":"0.00012780","CENTER_NAME":"EARTH","REF_FRAME":"TEME","EPHEMERIS_TYPE":"0","SITE":"AFETR","RCS_SIZE":"LARGE","MEAN_MOTION":"15.06375864","NORAD_CAT_ID":"44723","COUNTRY_CODE":"US","GP_ID":"223248445","FILE":"3750956","LAUNCH_DATE":"2019-11-11","APOAPSIS":"548.173","SEMIMAJOR_AXIS":"6925.423","RA_OF_ASC_NODE":"299.7779","MEAN_ELEMENT_THEORY":"SGP4","PERIOD":"95.594","ARG_OF_PERICENTER":"66.6844","TLE_LINE2":"2 44723  53.0568 299.7779 0001278  66.6844 293.4280 15.06375864175737","MEAN_MOTION_DDOT":"0.0000000000000","INCLINATION":"53.0568"},{"CLASSIFICATION_TYPE":"U","REV_AT_EPOCH":"17573","ECCENTRICITY":"0.00015760","PERIAPSIS":"546.239","OBJECT_ID":"2019-074M","OBJECT_NAME":"STARLINK-1019","EPOCH":"2023-01-16T19:28:17.228064","MEAN_ANOMALY":"278.2756","TLE_LINE1":"1 44724U 19074M   23016.81131051 -.00015328  00000-0 -10134-2 0  9996","MEAN_MOTION_DOT":"-0.00015328","ELEMENT_SET_NO":"999","DECAY_DATE":null,"OBJECT_TYPE":"PAYLOAD","TIME_SYSTEM":"UTC","BSTAR":"-0.00101340000000","PERIOD":"95.595","RA_OF_ASC_NODE":"299.6461","MEAN_ELEMENT_THEORY":"SGP4","TLE_LINE2":"2 44724  53.0535 299.6461 0001576  81.8411 278.2756 15.06361920175736","MEAN_MOTION_DDOT":"0.0000000000000","ARG_OF_PERICENTER":"81.8411","INCLINATION":"53.0535","LAUNCH_DATE":"2019-11-11","COUNTRY_CODE":"US","FILE":"3750956","GP_ID":"223248694","APOAPSIS":"548.422","SEMIMAJOR_AXIS":"6925.465","RCS_SIZE":"LARGE","SITE":"AFETR","NORAD_CAT_ID":"44724","MEAN_MOTION":"15.06361920","CENTER_NAME":"EARTH","REF_FRAME":"TEME","EPHEMERIS_TYPE":"0"},{"OBJECT_ID":"2019-074N","PERIAPSIS":"545.809","OBJECT_NAME":"STARLINK-1020","MEAN_ANOMALY":"247.1875","EPOCH":"2023-01-16T19:36:14.876640","CLASSIFICATION_TYPE":"U","ECCENTRICITY":"0.00020480","REV_AT_EPOCH":"17545","TIME_SYSTEM":"UTC","OBJECT_TYPE":"PAYLOAD","DECAY_DATE":null,"BSTAR":"0.00073164000000","MEAN_MOTION_DOT":"0.00010632","TLE_LINE1":"1 44725U 19074N   23016.81683885  .00010632  00000-0  73164-3 0  9998","ELEMENT_SET_NO":"999","COUNTRY_CODE":"US","FILE":"3750956","GP_ID":"223248941","LAUNCH_DATE":"2019-11-11","APOAPSIS":"548.646","SEMIMAJOR_AXIS":"6925.362","RA_OF_ASC_NODE":"319.6337","MEAN_ELEMENT_THEORY":"SGP4","PERIOD":"95.592","TLE_LINE2":"2 44725  53.0504 319.6337 0002048 112.9330 247.1875 15.06395508175454","MEAN_MOTION_DDOT":"0.0000000000000","INCLINATION":"53.0504","ARG_OF_PERICENTER":"112.9330","CENTER_NAME":"EARTH","REF_FRAME":"TEME","EPHEMERIS_TYPE":"0","SITE":"AFETR","RCS_SIZE":"LARGE","MEAN_MOTION":"15.06395508","NORAD_CAT_ID":"44725"},{"REF_FRAME":"TEME","CENTER_NAME":"EARTH","EPHEMERIS_TYPE":"0","SITE":"AFETR","RCS_SIZE":"LARGE","MEAN_MOTION":"15.06394680","NORAD_CAT_ID":"44726","GP_ID":"223249695","FILE":"3750956","COUNTRY_CODE":"US","LAUNCH_DATE":"2019-11-11","SEMIMAJOR_AXIS":"6925.365","APOAPSIS":"548.017","MEAN_ELEMENT_THEORY":"SGP4","RA_OF_ASC_NODE":"299.6538","PERIOD":"95.592","TLE_LINE2":"2 44726  53.0542 299.6538 0001137 109.1784 250.9328 15.06394680175732","INCLINATION":"53.0542","MEAN_MOTION_DDOT":"0.0000000000000","ARG_OF_PERICENTER":"109.1784","TIME_SYSTEM":"UTC","DECAY_DATE":null,"OBJECT_TYPE":"PAYLOAD","BSTAR":"0.00105780000000","ELEMENT_SET_NO":"999","TLE_LINE1":"1 44726U 19074P   23016.80762365  .00015507  00000-0  10578-2 0  9994","MEAN_MOTION_DOT":"0.00015507","PERIAPSIS":"546.442","OBJECT_ID":"2019-074P","EPOCH":"2023-01-16T19:22:58.683360","MEAN_ANOMALY":"250.9328","OBJECT_NAME":"STARLINK-1021","CLASSIFICATION_TYPE":"U","ECCENTRICITY":"0.00011370","REV_AT_EPOCH":"17573"},{"PERIOD":"95.592","MEAN_ELEMENT_THEORY":"SGP4","RA_OF_ASC_NODE":"339.2070","TLE_LINE2":"2 44727  53.0533 339.2070 0001075 109.1058 251.0048 15.06396822175203","MEAN_MOTION_DDOT":"0.0000000000000","INCLINATION":"53.0533","ARG_OF_PERICENTER":"109.1058","LAUNCH_DATE":"2019-11-11","GP_ID":"223247945","FILE":"3750956","COUNTRY_CODE":"US","SEMIMAJOR_AXIS":"6925.358","APOAPSIS":"547.968","RCS_SIZE":"LARGE","SITE":"AFETR","NORAD_CAT_ID":"44727","MEAN_MOTION":"15.06396822","REF_FRAME":"TEME","CENTER_NAME":"EARTH","EPHEMERIS_TYPE":"0","CLASSIFICATION_TYPE":"U","ECCENTRICITY":"0.00010750","REV_AT_EPOCH":"17520","OBJECT_ID":"2019-074Q","PERIAPSIS":"546.479","MEAN_ANOMALY":"251.0048","EPOCH":"2023-01-16T21:50:14.382816","OBJECT_NAME":"STARLINK-1022","ELEMENT_SET_NO":"999","TLE_LINE1":"1 44727U 19074Q   23016.90988869  .00001515  00000-0  12058-3 0  9995","MEAN_MOTION_DOT":"0.00001515","DECAY_DATE":null,"OBJECT_TYPE":"PAYLOAD","TIME_SYSTEM":"UTC","BSTAR":"0.00012058000000"},{"BSTAR":"0.00438330000000","TIME_SYSTEM":"UTC","DECAY_DATE":null,"OBJECT_TYPE":"PAYLOAD","TLE_LINE1":"1 44729U 19074S   23016.10750873  .00110374  00000-0  43833-2 0  9999","MEAN_MOTION_DOT":"0.00110374","ELEMENT_SET_NO":"999","OBJECT_NAME":"STARLINK-1024","MEAN_ANOMALY":"257.8415","EPOCH":"2023-01-16T02:34:48.754272","OBJECT_ID":"2019-074S","PERIAPSIS":"490.769","ECCENTRICITY":"0.00023620","REV_AT_EPOCH":"17570","CLASSIFICATION_TYPE":"U","EPHEMERIS_TYPE":"0","CENTER_NAME":"EARTH","REF_FRAME":"TEME","MEAN_MOTION":"15.24465809","NORAD_CAT_ID":"44729","SITE":"AFETR","RCS_SIZE":"LARGE","APOAPSIS":"494.015","SEMIMAJOR_AXIS":"6870.527","COUNTRY_CODE":"US","GP_ID":"223196873","FILE":"3749606","LAUNCH_DATE":"2019-11-11","INCLINATION":"53.0185","TLE_LINE2":"2 44729  53.0185 294.3063 0002362 102.2845 257.8415 15.24465809175708","MEAN_MOTION_DDOT":"0.0000000000000","ARG_OF_PERICENTER":"102.2845","RA_OF_ASC_NODE":"294.3063","MEAN_ELEMENT_THEORY":"SGP4","PERIOD":"94.459"},{"CENTER_NAME":"EARTH","REF_FRAME":"TEME","EPHEMERIS_TYPE":"0","RCS_SIZE":"LARGE","SITE":"AFETR","NORAD_CAT_ID":"44731","MEAN_MOTION":"15.06396059","LAUNCH_DATE":"2019-11-11","COUNTRY_CODE":"US","GP_ID":"223249441","FILE":"3750956","APOAPSIS":"549.222","SEMIMAJOR_AXIS":"6925.361","PERIOD":"95.592","RA_OF_ASC_NODE":"299.6206","MEAN_ELEMENT_THEORY":"SGP4","INCLINATION":"53.0529","TLE_LINE2":"2 44731  53.0529 299.6206 0002882  92.9037 267.2282 15.06396059175735","MEAN_MOTION_DDOT":"0.0000000000000","ARG_OF_PERICENTER":"92.9037","OBJECT_TYPE":"PAYLOAD","DECAY_DATE":null,"TIME_SYSTEM":"UTC","BSTAR":"0.00081621000000","TLE_LINE1":"1 44731U 19074U   23016.81868290  .00011896  00000-0  81621-3 0  9990","MEAN_MOTION_DOT":"0.00011896","ELEMENT_SET_NO":"999","PERIAPSIS":"545.230","OBJECT_ID":"2019-074U","OBJECT_NAME":"STARLINK-1026","EPOCH":"2023-01-16T19:38:54.202560","MEAN_ANOMALY":"267.2282","CLASSIFICATION_TYPE":"U","ECCENTRICITY":"0.00028820","REV_AT_EPOCH":"17573"},{"CENTER_NAME":"EARTH","REF_FRAME":"TEME","EPHEMERIS_TYPE":"0","SITE":"AFETR","RCS_SIZE":"LARGE","MEAN_MOTION":"15.06379334","NORAD_CAT_ID":"44732","COUNTRY_CODE":"US","FILE":"3750956","GP_ID":"223249196","LAUNCH_DATE":"2019-11-11","APOAPSIS":"549.005","SEMIMAJOR_AXIS":"6925.412","RA_OF_ASC_NODE":"319.6811","MEAN_ELEMENT_THEORY":"SGP4","PERIOD":"95.593","INCLINATION":"53.0519","TLE_LINE2":"2 44732  53.0519 319.6811 0002495  79.6160 280.5110 15.06379334175453","MEAN_MOTION_DDOT":"0.0000000000000","ARG_OF_PERICENTER":"79.6160","TIME_SYSTEM":"UTC","OBJECT_TYPE":"PAYLOAD","DECAY_DATE":null,"BSTAR":"-0.00051544000000","TLE_LINE1":"1 44732U 19074V   23016.80578004 -.00007947  00000-0 -51544-3 0  9996","MEAN_MOTION_DOT":"-0.00007947","ELEMENT_SET_NO":"999","PERIAPSIS":"545.549","OBJECT_ID":"2019-074V","OBJECT_NAME":"STARLINK-1027","EPOCH":"2023-01-16T19:20:19.395456","MEAN_ANOMALY":"280.5110","CLASSIFICATION_TYPE":"U","REV_AT_EPOCH":"17545","ECCENTRICITY":"0.00024950"},{"ECCENTRICITY":"0.00012590","REV_AT_EPOCH":"17573","CLASSIFICATION_TYPE":"U","OBJECT_NAME":"STARLINK-1028","EPOCH":"2023-01-16T19:17:40.426368","MEAN_ANOMALY":"241.6389","OBJECT_ID":"2019-074W","PERIAPSIS":"546.381","TLE_LINE1":"1 44733U 19074W   23016.80394012  .00002079  00000-0  15850-3 0  9991","MEAN_MOTION_DOT":"0.00002079","ELEMENT_SET_NO":"999","BSTAR":"0.00015850000000","TIME_SYSTEM":"UTC","OBJECT_TYPE":"PAYLOAD","DECAY_DATE":null,"MEAN_MOTION_DDOT":"0.0000000000000","TLE_LINE2":"2 44733  53.0550 299.6694 0001259 118.4727 241.6389 15.06387074175730","INCLINATION":"53.0550","ARG_OF_PERICENTER":"118.4727","RA_OF_ASC_NODE":"299.6694","MEAN_ELEMENT_THEORY":"SGP4","PERIOD":"95.593","APOAPSIS":"548.125","SEMIMAJOR_AXIS":"6925.388","COUNTRY_CODE":"US","FILE":"3750956","GP_ID":"223248446","LAUNCH_DATE":"2019-11-11","MEAN_MOTION":"15.06387074","NORAD_CAT_ID":"44733","SITE":"AFETR","RCS_SIZE":"LARGE","EPHEMERIS_TYPE":"0","CENTER_NAME":"EARTH","REF_FRAME":"TEME"},{"EPHEMERIS_TYPE":"0","REF_FRAME":"TEME","CENTER_NAME":"EARTH","MEAN_MOTION":"15.06409520","NORAD_CAT_ID":"44734","SITE":"AFETR","RCS_SIZE":"LARGE","SEMIMAJOR_AXIS":"6925.319","APOAPSIS":"548.213","GP_ID":"223248695","FILE":"3750956","COUNTRY_CODE":"US","LAUNCH_DATE":"2019-11-11","INCLINATION":"53.0517","TLE_LINE2":"2 44734  53.0517 219.6139 0001485  77.8462 282.2693 15.06409520176837","MEAN_MOTION_DDOT":"0.0000000000000","ARG_OF_PERICENTER":"77.8462","MEAN_ELEMENT_THEORY":"SGP4","RA_OF_ASC_NODE":"219.6139","PERIOD":"95.592","BSTAR":"0.00071175000000","TIME_SYSTEM":"UTC","DECAY_DATE":null,"OBJECT_TYPE":"PAYLOAD","ELEMENT_SET_NO":"999","MEAN_MOTION_DOT":"0.00010339","TLE_LINE1":"1 44734U 19074X   23016.81869054  .00010339  00000-0  71175-3 0  9996","MEAN_ANOMALY":"282.2693","EPOCH":"2023-01-16T19:38:54.862656","OBJECT_NAME":"STARLINK-1029","OBJECT_ID":"2019-074X","PERIAPSIS":"546.156","ECCENTRICITY":"0.00014850","REV_AT_EPOCH":"17683","CLASSIFICATION_TYPE":"U"}];
